start=new Date('2023-04-30T00:00:00.000Z').valueOf();
sats=[{"GP_ID":"230934268","SEMIMAJOR_AXIS":"6925.339","FILE":"3896564","OBJECT_TYPE":"PAYLOAD","MEAN_MOTION_DOT":"0.00015666","REF_FRAME":"TEME","MEAN_ANOMALY":"259.2516","CLASSIFICATION_TYPE":"U","MEAN_MOTION_DDOT":"0.0000000000000","REV_AT_EPOCH":"14699","MEAN_MOTION":"15.06403180","RA_OF_ASC_NODE":"27.6375","NORAD_CAT_ID":"46350","INCLINATION":"53.0557","ARG_OF_PERICENTER":"100.8683","OBJECT_ID":"2020-062AB","EPHEMERIS_TYPE":"0","RCS_SIZE":"LARGE","BSTAR":"0.00106820000000","TLE_LINE1":"1 46350U 20062AB  23119.72734998  .00015666  00000-0  10682-2 0  9996","EPOCH":"2023-04-29T17:27:23.038272","DECAY_DATE":null,"ELEMENT_SET_NO":"999","COUNTRY_CODE":"US","SITE":"AFETR","PERIOD":"95.592","ECCENTRICITY":"0.00018710","PERIAPSIS":"545.908","LAUNCH_DATE":"2020-09-03","CENTER_NAME":"EARTH","MEAN_ELEMENT_THEORY":"SGP4","TLE_LINE2":"2 46350  53.0557  27.6375 0001871 100.8683 259.2516 15.06403180146995","TIME_SYSTEM":"UTC","APOAPSIS":"548.500","OBJECT_NAME":"STARLINK-1617"},{"INCLINATION":"53.0551","NORAD_CAT_ID":"46351","MEAN_MOTION":"15.06404729","RA_OF_ASC_NODE":"10.2876","REV_AT_EPOCH":"14701","MEAN_MOTION_DDOT":"0.0000000000000","CLASSIFICATION_TYPE":"U","MEAN_ANOMALY":"268.2012","MEAN_MOTION_DOT":"0.00023464","REF_FRAME":"TEME","FILE":"3896517","OBJECT_TYPE":"PAYLOAD","SEMIMAJOR_AXIS":"6925.334","GP_ID":"230925557","TLE_LINE1":"1 46351U 20062AC  23119.13481006  .00023464  00000-0  15887-2 0  9998","BSTAR":"0.00158870000000","RCS_SIZE":"LARGE","EPHEMERIS_TYPE":"0","OBJECT_ID":"2020-062AC","ARG_OF_PERICENTER":"91.9107","COUNTRY_CODE":"US","ELEMENT_SET_NO":"999","DECAY_DATE":null,"EPOCH":"2023-04-29T03:14:07.589184","APOAPSIS":"547.986","OBJECT_NAME":"STARLINK-1646","TLE_LINE2":"2 46351  53.0551  10.2876 0001136  91.9107 268.2012 15.06404729147014","TIME_SYSTEM":"UTC","MEAN_ELEMENT_THEORY":"SGP4","CENTER_NAME":"EARTH","LAUNCH_DATE":"2020-09-03","PERIAPSIS":"546.412","ECCENTRICITY":"0.00011360","PERIOD":"95.592","SITE":"AFETR"},{"LAUNCH_DATE":"2020-09-03","CENTER_NAME":"EARTH","MEAN_ELEMENT_THEORY":"SGP4","TLE_LINE2":"2 46352  53.0548   7.6928 0001256  91.6110 268.5022 15.06390386147278","TIME_SYSTEM":"UTC","OBJECT_NAME":"STARLINK-1653","APOAPSIS":"548.113","SITE":"AFETR","PERIOD":"95.593","ECCENTRICITY":"0.00012560","PERIAPSIS":"546.373","ELEMENT_SET_NO":"999","COUNTRY_CODE":"US","EPOCH":"2023-04-29T17:08:48.827328","DECAY_DATE":null,"RCS_SIZE":"LARGE","BSTAR":"0.00082977000000","TLE_LINE1":"1 46352U 20062AD  23119.71445402  .00012096  00000-0  82977-3 0  9997","ARG_OF_PERICENTER":"91.6110","EPHEMERIS_TYPE":"0","OBJECT_ID":"2020-062AD","MEAN_MOTION_DDOT":"0.0000000000000","REV_AT_EPOCH":"14727","RA_OF_ASC_NODE":"7.6928","MEAN_MOTION":"15.06390386","NORAD_CAT_ID":"46352","INCLINATION":"53.0548","GP_ID":"230934285","SEMIMAJOR_AXIS":"6925.378","OBJECT_TYPE":"PAYLOAD","FILE":"3896565","MEAN_MOTION_DOT":"0.00012096","REF_FRAME":"TEME","MEAN_ANOMALY":"268.5022","CLASSIFICATION_TYPE":"U"},{"TLE_LINE1":"1 46353U 20062AE  23119.04912865  .00024242  00000-0  16380-2 0  9996","BSTAR":"0.00163800000000","RCS_SIZE":"LARGE","EPHEMERIS_TYPE":"0","OBJECT_ID":"2020-062AE","ARG_OF_PERICENTER":"103.4945","INCLINATION":"53.0549","NORAD_CAT_ID":"46353","RA_OF_ASC_NODE":"30.6815","MEAN_MOTION":"15.06462299","REV_AT_EPOCH":"14688","MEAN_MOTION_DDOT":"0.0000000000000","CLASSIFICATION_TYPE":"U","MEAN_ANOMALY":"256.6174","MEAN_MOTION_DOT":"0.00024242","REF_FRAME":"TEME","FILE":"3896565","OBJECT_TYPE":"PAYLOAD","SEMIMAJOR_AXIS":"6925.158","GP_ID":"230933990","OBJECT_NAME":"STARLINK-1656","APOAPSIS":"547.833","TLE_LINE2":"2 46353  53.0549  30.6815 0001170 103.4945 256.6174 15.06462299146889","TIME_SYSTEM":"UTC","MEAN_ELEMENT_THEORY":"SGP4","CENTER_NAME":"EARTH","LAUNCH_DATE":"2020-09-03","PERIAPSIS":"546.212","ECCENTRICITY":"0.00011700","PERIOD":"95.588","SITE":"AFETR","COUNTRY_CODE":"US","ELEMENT_SET_NO":"999","DECAY_DATE":null,"EPOCH":"2023-04-29T01:10:44.715360"},{"DECAY_DATE":null,"EPOCH":"2023-04-29T18:25:46.096032","COUNTRY_CODE":"US","ELEMENT_SET_NO":"999","PERIAPSIS":"546.348","SITE":"AFETR","ECCENTRICITY":"0.00012860","PERIOD":"95.593","MEAN_ELEMENT_THEORY":"SGP4","OBJECT_NAME":"STARLINK-1657","APOAPSIS":"548.129","TIME_SYSTEM":"UTC","TLE_LINE2":"2 46354  53.0558  27.4563 0001286  88.6213 271.4924 15.06391736146991","LAUNCH_DATE":"2020-09-03","CENTER_NAME":"EARTH","CLASSIFICATION_TYPE":"U","MEAN_ANOMALY":"271.4924","SEMIMAJOR_AXIS":"6925.374","GP_ID":"230934362","MEAN_MOTION_DOT":"-0.00003618","REF_FRAME":"TEME","FILE":"3896574","OBJECT_TYPE":"PAYLOAD","INCLINATION":"53.0558","NORAD_CAT_ID":"46354","REV_AT_EPOCH":"14699","MEAN_MOTION_DDOT":"0.0000000000000","MEAN_MOTION":"15.06391736","RA_OF_ASC_NODE":"27.4563","OBJECT_ID":"2020-062AF","EPHEMERIS_TYPE":"0","ARG_OF_PERICENTER":"88.6213","TLE_LINE1":"1 46354U 20062AF  23119.76789463 -.00003618  00000-0 -22419-3 0  9999","BSTAR":"-0.00022419000000","RCS_SIZE":"LARGE"},{"REV_AT_EPOCH":"14672","MEAN_MOTION_DDOT":"0.0000000000000","RA_OF_ASC_NODE":"30.2497","MEAN_MOTION":"15.06439679","INCLINATION":"53.0546","NORAD_CAT_ID":"46355","SEMIMAJOR_AXIS":"6925.227","GP_ID":"230926058","MEAN_MOTION_DOT":"0.00025661","REF_FRAME":"TEME","OBJECT_TYPE":"PAYLOAD","FILE":"3896517","CLASSIFICATION_TYPE":"U","MEAN_ANOMALY":"275.1255","BSTAR":"0.00173350000000","RCS_SIZE":"LARGE","TLE_LINE1":"1 46355U 20062AG  23119.14494872  .00025661  00000-0  17335-2 0  9999","ARG_OF_PERICENTER":"84.9877","OBJECT_ID":"2020-062AG","EPHEMERIS_TYPE":"0","ELEMENT_SET_NO":"999","COUNTRY_CODE":"US","EPOCH":"2023-04-29T03:28:43.569408","DECAY_DATE":null,"LAUNCH_DATE":"2020-09-03","CENTER_NAME":"EARTH","MEAN_ELEMENT_THEORY":"SGP4","APOAPSIS":"547.961","OBJECT_NAME":"STARLINK-1661","TLE_LINE2":"2 46355  53.0546  30.2497 0001255  84.9877 275.1255 15.06439679146726","TIME_SYSTEM":"UTC","SITE":"AFETR","ECCENTRICITY":"0.00012550","PERIOD":"95.590","PERIAPSIS":"546.223"},{"ARG_OF_PERICENTER":"95.4281","OBJECT_ID":"2020-062AH","EPHEMERIS_TYPE":"0","RCS_SIZE":"LARGE","BSTAR":"0.00129210000000","TLE_LINE1":"1 46356U 20062AH  23119.75219562  .00019022  00000-0  12921-2 0  9998","GP_ID":"230934753","SEMIMAJOR_AXIS":"6925.316","OBJECT_TYPE":"PAYLOAD","FILE":"3896579","MEAN_MOTION_DOT":"0.00019022","REF_FRAME":"TEME","MEAN_ANOMALY":"264.6909","CLASSIFICATION_TYPE":"U","MEAN_MOTION_DDOT":"0.0000000000000","REV_AT_EPOCH":"14699","RA_OF_ASC_NODE":"27.5130","MEAN_MOTION":"15.06410588","NORAD_CAT_ID":"46356","INCLINATION":"53.0548","SITE":"AFETR","PERIOD":"95.591","ECCENTRICITY":"0.00017610","PERIAPSIS":"545.962","LAUNCH_DATE":"2020-09-03","CENTER_NAME":"EARTH","MEAN_ELEMENT_THEORY":"SGP4","TLE_LINE2":"2 46356  53.0548  27.5130 0001761  95.4281 264.6909 15.06410588146996","TIME_SYSTEM":"UTC","APOAPSIS":"548.401","OBJECT_NAME":"STARLINK-1665","EPOCH":"2023-04-29T18:03:09.701568","DECAY_DATE":null,"ELEMENT_SET_NO":"999","COUNTRY_CODE":"US"},{"INCLINATION":"53.0556","NORAD_CAT_ID":"46357","REV_AT_EPOCH":"14726","MEAN_MOTION_DDOT":"0.0000000000000","MEAN_MOTION":"15.06408405","RA_OF_ASC_NODE":"7.8269","CLASSIFICATION_TYPE":"U","MEAN_ANOMALY":"255.7152","SEMIMAJOR_AXIS":"6925.323","GP_ID":"230934776","REF_FRAME":"TEME","MEAN_MOTION_DOT":"0.00021511","FILE":"3896581","OBJECT_TYPE":"PAYLOAD","TLE_LINE1":"1 46357U 20062AJ  23119.68496572  .00021511  00000-0  14583-2 0  9991","BSTAR":"0.00145830000000","RCS_SIZE":"LARGE","OBJECT_ID":"2020-062AJ","EPHEMERIS_TYPE":"0","ARG_OF_PERICENTER":"104.3947","COUNTRY_CODE":"US","ELEMENT_SET_NO":"999","DECAY_DATE":null,"EPOCH":"2023-04-29T16:26:21.038208","MEAN_ELEMENT_THEORY":"SGP4","APOAPSIS":"547.875","OBJECT_NAME":"STARLINK-1666","TIME_SYSTEM":"UTC","TLE_LINE2":"2 46357  53.0556   7.8269 0000992 104.3947 255.7152 15.06408405147261","LAUNCH_DATE":"2020-09-03","CENTER_NAME":"EARTH","PERIAPSIS":"546.501","SITE":"AFETR","ECCENTRICITY":"0.00009920","PERIOD":"95.592"},{"SITE":"AFETR","ECCENTRICITY":"0.00012100","PERIOD":"95.590","PERIAPSIS":"546.285","LAUNCH_DATE":"2020-09-03","CENTER_NAME":"EARTH","MEAN_ELEMENT_THEORY":"SGP4","APOAPSIS":"547.961","OBJECT_NAME":"STARLINK-1690","TLE_LINE2":"2 46358  53.0541  30.2991 0001210  91.0083 269.1045 15.06429467146726","TIME_SYSTEM":"UTC","EPOCH":"2023-04-29T03:12:48.963456","DECAY_DATE":null,"ELEMENT_SET_NO":"999","COUNTRY_CODE":"US","ARG_OF_PERICENTER":"91.0083","EPHEMERIS_TYPE":"0","OBJECT_ID":"2020-062AK","BSTAR":"0.00162060000000","RCS_SIZE":"LARGE","TLE_LINE1":"1 46358U 20062AK  23119.13390004  .00023959  00000-0  16206-2 0  9997","SEMIMAJOR_AXIS":"6925.258","GP_ID":"230925808","MEAN_MOTION_DOT":"0.00023959","REF_FRAME":"TEME","OBJECT_TYPE":"PAYLOAD","FILE":"3896517","CLASSIFICATION_TYPE":"U","MEAN_ANOMALY":"269.1045","REV_AT_EPOCH":"14672","MEAN_MOTION_DDOT":"0.0000000000000","RA_OF_ASC_NODE":"30.2991","MEAN_MOTION":"15.06429467","INCLINATION":"53.0541","NORAD_CAT_ID":"46358"},{"RA_OF_ASC_NODE":"342.4102","MEAN_MOTION":"15.06407851","MEAN_MOTION_DDOT":"0.0000000000000","REV_AT_EPOCH":"14762","NORAD_CAT_ID":"46359","INCLINATION":"53.0542","OBJECT_TYPE":"PAYLOAD","FILE":"3896600","MEAN_MOTION_DOT":"0.00021478","REF_FRAME":"TEME","GP_ID":"230935229","SEMIMAJOR_AXIS":"6925.324","MEAN_ANOMALY":"285.3219","CLASSIFICATION_TYPE":"U","RCS_SIZE":"LARGE","BSTAR":"0.00145610000000","TLE_LINE1":"1 46359U 20062AL  23119.77757891  .00021478  00000-0  14561-2 0  9995","ARG_OF_PERICENTER":"74.7949","EPHEMERIS_TYPE":"0","OBJECT_ID":"2020-062AL","ELEMENT_SET_NO":"999","COUNTRY_CODE":"US","EPOCH":"2023-04-29T18:39:42.817824","DECAY_DATE":null,"CENTER_NAME":"EARTH","LAUNCH_DATE":"2020-09-03","TIME_SYSTEM":"UTC","TLE_LINE2":"2 46359  53.0542 342.4102 0001614  74.7949 285.3219 15.06407851147623","OBJECT_NAME":"STARLINK-1707","APOAPSIS":"548.307","MEAN_ELEMENT_THEORY":"SGP4","PERIOD":"95.592","ECCENTRICITY":"0.00016140","SITE":"AFETR","PERIAPSIS":"546.072"}];
